IONOSFERA-M 2           
1 61736U 24199B   26162.88332773  .00000043  00000+0  38716-4 0  9991
2 61736  98.7179  36.0220 0001265  42.9687 317.1590 14.22756493130079
PRSC-EO1                
1 62725U 25012A   26162.98305186  .00005836  00000+0  29269-3 0  9991
2 62725  97.4231 235.5443 0004188 275.1955  84.8801 15.17703162 77401
BIOMASS                 
1 63772U 25090A   26162.57891511  .00000866  00000+0  16120-3 0  9997
2 63772  98.0741 349.9773 0001376  90.5955 269.5407 14.67536577 59860
GOSAT-GW (IBUKI GW)     
1 64694U 25141A   26162.94017667  .00000307  00000+0  62527-4 0  9994
2 64694  98.0570 100.3426 0001420  84.0122 276.1244 14.67554523 51071
IONOSFERA-M 3           
1 64876U 25155A   26162.96666336  .00000035  00000+0  35517-4 0  9993
2 64876  98.6022 125.0031 0000709 166.5990 193.5207 14.21485623 45668
IONOSFERA-M 4           
1 64877U 25155B   26162.93112463  .00000035  00000+0  35660-4 0  9997
2 64877  98.6021 124.8860 0000852 119.0059 241.1205 14.21487786 45652
MICROCARB               
1 64899U 25156A   26162.78083963  .00000405  00000+0  71798-4 0  9990
2 64899  97.9832 240.0146 0015024 291.1517  68.8085 14.72319930 47174
CO3D 3                  
1 64900U 25156B   26162.92180733  .00003805  00000+0  17883-3 0  9993
2 64900  97.4334 241.6903 0001199 131.5714 228.5624 15.20197888 48738
CO3D 4                  
1 64901U 25156C   26162.65866740  .00000293  00000+0  16630-4 0  9991
2 64901  97.4332 241.4307 0000629  25.0477 335.0788 15.20199962 48698
CO3D 2                  
1 64902U 25156D   26162.88861655  .00003970  00000+0  18643-3 0  9997
2 64902  97.4332 241.5564 0001458 109.8301 250.3091 15.20197449 48721
CO3D 1                  
1 64903U 25156E   26162.88877146  .00004992  00000+0  23356-3 0  9992
2 64903  97.4332 241.5569 0001256 115.5249 244.6116 15.20200392 48724
PRSC-S1                 
1 65055U 25164A   26162.89380816  .00004802  00000+0  33171-3 0  9990
2 65055  41.1312 317.6234 0007279 311.5644  48.4545 15.06410103 47631
SENTINEL-6B             
1 66514U 25264A   26162.30821273 -.00000031  00000+0  13148-3 0  9998
2 66514  66.0388 147.3891 0008038 269.2334  90.7760 12.80929900 26418
CAS500-3                
1 66655U 25274F   26162.76948973  .00001054  00000+0  11978-3 0  9996
2 66655  97.7448  90.9439 0006487 124.4091 235.7740 14.88307951 29341
CSG-3                   
1 67304U 26001A   26162.93320716  .00000268  00000+0  40227-4 0  9991
2 67304  97.8887 346.6112 0001343  93.2654 266.8712 14.82150216 23683
PRSC-E03                
1 68835U 26092A   26162.88615920  .00002221  00000+0  15416-3 0  9991
2 68835  37.9997 120.9385 0004629 325.3561  34.6898 15.06642051  7151
CAS500-2                
1 69013U 26100AK  26162.69018331  .00005664  00000+0  26172-3 0  9997
2 69013  97.4088  60.6400 0011138  51.6934 308.5301 15.20525114  5972
