OBJECT_NAME,OBJECT_ID,EPOCH,MEAN_MOTION,ECCENTRICITY,INCLINATION,RA_OF_ASC_NODE,ARG_OF_PERICENTER,MEAN_ANOMALY,EPHEMERIS_TYPE,CLASSIFICATION_TYPE,NORAD_CAT_ID,ELEMENT_SET_NO,REV_AT_EPOCH,BSTAR,MEAN_MOTION_DOT,MEAN_MOTION_DDOT
IONOSFERA-M 2,2024-199B,2026-06-11T21:11:59.515872,14.22756493,.00012658,98.7179,36.0220,42.9687,317.1590,0,U,61736,999,13007,.38715502E-4,.43E-6,0
PRSC-EO1,2025-012A,2026-06-11T23:35:35.680704,15.17703162,.00041889,97.4231,235.5443,275.1955,84.8801,0,U,62725,999,7740,.29268988E-3,.5836E-4,0
BIOMASS,2025-090A,2026-06-11T13:53:38.265504,14.67536577,.00013766,98.0741,349.9773,90.5955,269.5407,0,U,63772,999,5986,.16120382E-3,.866E-5,0
GOSAT-GW (IBUKI GW),2025-141A,2026-06-11T22:33:51.264288,14.67554523,.000142,98.0570,100.3426,84.0122,276.1244,0,U,64694,999,5107,.62526774E-4,.307E-5,0
IONOSFERA-M 3,2025-155A,2026-06-11T23:11:59.714304,14.21485623,.00007093,98.6022,125.0031,166.5990,193.5207,0,U,64876,999,4566,.35516982E-4,.35E-6,0
IONOSFERA-M 4,2025-155B,2026-06-11T22:20:49.168032,14.21487786,.00008529,98.6021,124.8860,119.0059,241.1205,0,U,64877,999,4565,.35660472E-4,.35E-6,0
MICROCARB,2025-156A,2026-06-11T18:44:24.544032,14.72319930,.00150247,97.9832,240.0146,291.1517,68.8085,0,U,64899,999,4717,.7179799E-4,.405E-5,0
CO3D 3,2025-156B,2026-06-11T22:07:24.153312,15.20197888,.00011999,97.4334,241.6903,131.5714,228.5624,0,U,64900,999,4873,.17882676E-3,.3805E-4,0
CO3D 4,2025-156C,2026-06-11T15:48:28.863360,15.20199962,.00006297,97.4332,241.4307,25.0477,335.0788,0,U,64901,999,4869,.16629939E-4,.293E-5,0
CO3D 2,2025-156D,2026-06-11T21:19:36.469920,15.20197449,.00014583,97.4332,241.5564,109.8301,250.3091,0,U,64902,999,4872,.18642591E-3,.397E-4,0
CO3D 1,2025-156E,2026-06-11T21:19:49.854144,15.20200392,.00012561,97.4332,241.5569,115.5249,244.6116,0,U,64903,999,4872,.23356123E-3,.4992E-4,0
PRSC-S1,2025-164A,2026-06-11T21:27:05.025024,15.06410103,.00072791,41.1312,317.6234,311.5644,48.4545,0,U,65055,999,4763,.3317058E-3,.4802E-4,0
SENTINEL-6B,2025-264A,2026-06-11T07:23:49.579872,12.80929900,.0008038,66.0388,147.3891,269.2334,90.7760,0,U,66514,999,2641,.13148E-3,-.31E-6,0
CAS500-3,2025-274F,2026-06-11T18:28:03.912672,14.88307951,.00064873,97.7448,90.9439,124.4091,235.7740,0,U,66655,999,2934,.11978177E-3,.1054E-4,0
CSG-3,2026-001A,2026-06-11T22:23:49.098624,14.82150216,.00013433,97.8887,346.6112,93.2654,266.8712,0,U,67304,999,2368,.40226752E-4,.268E-5,0
PRSC-E03,2026-092A,2026-06-11T21:16:04.154880,15.06642051,.00046297,37.9997,120.9385,325.3561,34.6898,0,U,68835,999,715,.15415763E-3,.2221E-4,0
CAS500-2,2026-100AK,2026-06-11T16:33:51.837984,15.20525114,.00111381,97.4088,60.6400,51.6934,308.5301,0,U,69013,999,597,.26171959E-3,.5664E-4,0
